NORAD_CAT_ID,OBJECT_NAME,OBJECT_TYPE,EPOCH,MEAN_MOTION,ECCENTRICITY,INCLINATION,RA_OF_ASC_NODE,ARG_OF_PERICENTER,MEAN_ANOMALY,BSTAR,MEAN_MOTION_DOT,MEAN_MOTION_DDOT,TLE_LINE0,TLE_LINE1,TLE_LINE2,SEMIMAJOR_AXIS,PERIOD,APOGEE,PERIGEE,DECAYED
49747.0,STARLINK-3247,PAYLOAD,2023-01-30 04:58:21,15.08843232,0.0001186,53.2157,202.0118,84.6727,275.4401,0.00025375,3.753e-05,0.0,0 STARLINK-3247,1 49747U 21115Z   23030.20718779  .00003753  00000-0  25375-3 0  9993,2 49747  53.2157 202.0118 0001186  84.6727 275.4401 15.08843232 65370,6917.871,95.437,540.556,538.915,0.0
49747.0,STARLINK-3247,PAYLOAD,2023-01-30 11:19:53,15.08848826,0.0001258,53.2162,200.8226,83.1582,276.9553,0.00019661,2.843e-05,0.0,0 STARLINK-3247,1 49747U 21115Z   23030.47214583  .00002843  00000-0  19661-3 0  9996,2 49747  53.2162 200.8226 0001258  83.1582 276.9553 15.08848826 64305,6917.853,95.437,540.589,538.848,0.0
49747.0,STARLINK-3247,PAYLOAD,2023-01-31 11:10:39,15.08852452,0.0001141,53.2156,196.3605,91.177,268.9353,8.6883e-05,1.096e-05,0.0,0 STARLINK-3247,1 49747U 21115Z   23031.46573971  .00001096  00000-0  86883-4 0  9995,2 49747  53.2156 196.3605 0001141  91.1770 268.9353 15.08852452 65565,6917.842,95.437,540.497,538.918,0.0
49747.0,STARLINK-3247,PAYLOAD,2023-02-01 11:01:27,15.08843753,9.01e-05,53.2164,191.9013,86.306,273.8035,-7.5138e-06,-4.07e-06,0.0,0 STARLINK-3247,1 49747U 21115Z   23032.45934181 -.00000407  00000-0 -75138-5 0  9998,2 49747  53.2164 191.9013 0000901  86.3060 273.8035 15.08843753 65712,6917.869,95.437,540.357,539.111,0.0
49747.0,STARLINK-3247,PAYLOAD,2023-02-02 10:52:14,15.08837656,0.0001339,53.2197,187.4423,107.8439,252.2699,5.146e-05,5.31e-06,0.0,0 STARLINK-3247,1 49747U 21115Z   23033.45294178  .00000531  00000-0  51460-4 0  9991,2 49747  53.2197 187.4423 0001339 107.8439 252.2699 15.08837656 64753,6917.888,95.438,540.679,538.826,0.0
49747.0,STARLINK-3247,PAYLOAD,2023-02-02 20:24:33,15.0883757,0.0001214,53.216,185.6568,90.9009,269.2122,4.5293e-05,4.33e-06,0.0,0 STARLINK-3247,1 49747U 21115Z   23033.85038220  .00000433  00000-0  45293-4 0  9997,2 49747  53.2160 185.6568 0001214  90.9009 269.2122 15.08837570 65924,6917.888,95.438,540.593,538.913,0.0
49747.0,STARLINK-3247,PAYLOAD,2023-02-03 10:43:01,15.0882944,0.0001118,53.2157,182.9804,94.3742,265.7378,2.9133e-05,1.76e-06,0.0,0 STARLINK-3247,1 49747U 21115Z   23034.44654926  .00000176  00000-0  29133-4 0  9999,2 49747  53.2157 182.9804 0001118  94.3742 265.7378 15.08829440 66010,6917.913,95.438,540.551,539.004,0.0
49747.0,STARLINK-3247,PAYLOAD,2023-02-03 18:39:57,15.08836783,0.0001007,53.2156,181.4935,90.3586,269.7521,4.215e-05,3.83e-06,0.0,0 STARLINK-3247,1 49747U 21115Z   23034.77774575  .00000383  00000-0  42150-4 0  9992,2 49747  53.2156 181.4935 0001007  90.3586 269.7521 15.08836783 66064,6917.89,95.438,540.452,539.059,0.0
49747.0,STARLINK-3247,PAYLOAD,2023-02-04 13:44:34,15.08854609,0.0001768,53.2162,177.9252,82.7445,277.3748,-5.173e-05,-1.112e-05,0.0,0 STARLINK-3247,1 49747U 21115Z   23035.57261851 -.00001112  00000-0 -51730-4 0  9996,2 49747  53.2162 177.9252 0001768  82.7445 277.3748 15.08854609 66182,6917.836,95.437,540.924,538.478,0.0
49747.0,STARLINK-3247,PAYLOAD,2023-02-04 18:30:43,15.08847502,0.0001037,53.2164,177.033,89.0506,271.0605,0.00011839,1.597e-05,0.0,0 STARLINK-3247,1 49747U 21115Z   23035.77133835  .00001597  00000-0  11839-3 0  9998,2 49747  53.2164 177.0330 0001037  89.0506 271.0605 15.08847502 65107,6917.857,95.437,540.44,539.005,0.0
49747.0,STARLINK-3247,PAYLOAD,2023-02-05 13:35:20,15.0886262,0.0001052,53.2161,173.4644,88.043,272.0682,0.00046977,7.201e-05,0.0,0 STARLINK-3247,1 49747U 21115Z   23036.56620538  .00007201  00000-0  46977-3 0  9996,2 49747  53.2161 173.4644 0001052  88.0430 272.0682 15.08862620 65221,6917.811,95.436,540.404,538.948,0.0
49747.0,STARLINK-3247,PAYLOAD,2023-02-05 18:21:29,15.08858268,0.0001067,53.2153,172.5758,76.5758,283.5353,-1.9886e-05,-6.04e-06,0.0,0 STARLINK-3247,1 49747U 21115Z   23036.76492488 -.00000604  00000-0 -19886-4 0  9991,2 49747  53.2153 172.5758 0001067  76.5758 283.5353 15.08858268 66360,6917.825,95.436,540.428,538.951,0.0
49747.0,STARLINK-3247,PAYLOAD,2023-02-06 02:18:26,15.08834546,0.0001387,53.2164,171.086,81.4367,278.6783,-0.00011661,-2.143e-05,0.0,0 STARLINK-3247,1 49747U 21115Z   23037.09613943 -.00002143  00000-0 -11661-3 0  9991,2 49747  53.2164 171.0860 0001387  81.4367 278.6783 15.08834546 66417,6917.897,95.438,540.722,538.803,0.0
49747.0,STARLINK-3247,PAYLOAD,2023-02-06 13:26:08,15.08833786,0.0001422,53.2144,169.0036,85.5065,274.609,-8.3008e-05,-1.609e-05,0.0,0 STARLINK-3247,1 49747U 21115Z   23037.55982172 -.00001609  00000-0 -83008-4 0  9996,2 49747  53.2144 169.0036 0001422  85.5065 274.6090 15.08833786 65373,6917.899,95.438,540.748,538.781,0.0
49747.0,STARLINK-3247,PAYLOAD,2023-02-06 18:12:17,15.08838223,0.0001296,53.2148,168.111,88.8511,271.2629,-3.1242e-05,-7.85e-06,0.0,0 STARLINK-3247,1 49747U 21115Z   23037.75853820 -.00000785  00000-0 -31242-4 0  9992,2 49747  53.2148 168.1110 0001296  88.8511 271.2629 15.08838223 65407,6917.886,95.438,540.647,538.854,0.0
49747.0,STARLINK-3247,PAYLOAD,2023-02-07 13:16:55,15.0885089,0.0001304,53.2145,164.5426,91.3074,268.8068,0.00064187,9.945e-05,0.0,0 STARLINK-3247,1 49747U 21115Z   23038.55341939  .00009945  00000-0  64187-3 0  9992,2 49747  53.2145 164.5426 0001304  91.3074 268.8068 15.08850890 65523,6917.847,95.437,540.614,538.81,0.0
49747.0,STARLINK-3247,PAYLOAD,2023-02-07 14:52:18,15.088533,0.0001258,53.2148,164.2462,86.6892,273.4244,0.00097385,0.0001525,0.0,0 STARLINK-3247,1 49747U 21115Z   23038.61966121  .00015250  00000-0  97385-3 0  9997,2 49747  53.2148 164.2462 0001258  86.6892 273.4244 15.08853300 66647,6917.84,95.437,540.575,538.834,0.0
49747.0,STARLINK-3247,PAYLOAD,2023-02-07 19:38:27,15.08880198,0.0001136,53.2153,163.3545,83.3582,276.7539,0.0019335,0.00030652,0.0,0 STARLINK-3247,1 49747U 21115Z   23038.81837583  .00030652  00000-0  19335-2 0  9999,2 49747  53.2153 163.3545 0001136  83.3582 276.7539 15.08880198 66671,6917.758,95.435,540.408,538.837,0.0
49747.0,STARLINK-3247,PAYLOAD,2023-02-08 13:07:42,15.08851249,0.0001135,53.2155,160.0839,95.5587,264.5535,0.00067006,0.00010395,0.0,0 STARLINK-3247,1 49747U 21115Z   23039.54702172  .00010395  00000-0  67006-3 0  9996,2 49747  53.2155 160.0839 0001135  95.5587 264.5535 15.08851249 66780,6917.846,95.437,540.496,538.926,0.0
49747.0,STARLINK-3247,PAYLOAD,2023-02-08 19:29:15,15.08862437,0.0001111,53.2158,158.895,95.5565,264.5553,0.0020785,0.00032967,0.0,0 STARLINK-3247,1 49747U 21115Z   23039.81198064  .00032967  00000-0  20785-2 0  9996,2 49747  53.2158 158.8950 0001111  95.5565 264.5553 15.08862437 65715,6917.812,95.436,540.445,538.908,0.0
49747.0,STARLINK-3247,PAYLOAD,2023-02-09 11:23:07,15.08851463,0.0001346,53.2157,155.9209,109.2828,250.831,0.0019801,0.00031376,0.0,0 STARLINK-3247,1 49747U 21115Z   23040.47438673  .00031376  00000-0  19801-2 0  9993,2 49747  53.2157 155.9209 0001346 109.2828 250.8310 15.08851463 65811,6917.845,95.437,540.641,538.779,0.0
49747.0,STARLINK-3247,PAYLOAD,2023-02-09 19:20:02,15.08851655,0.0001221,53.2157,154.4338,66.9917,293.1204,0.0014643,0.00023101,0.0,0 STARLINK-3247,1 49747U 21115Z   23040.80558753  .00023101  00000-0  14643-2 0  9998,2 49747  53.2157 154.4338 0001221  66.9917 293.1204 15.08851655 66971,6917.845,95.437,540.554,538.865,0.0
49747.0,STARLINK-3247,PAYLOAD,2023-02-10 00:06:12,15.08825693,8.5e-05,53.2159,153.5423,105.2498,254.8588,0.00056983,8.789e-05,0.0,0 STARLINK-3247,1 49747U 21115Z   23041.00431236  .00008789  00000-0  56983-3 0  9996,2 49747  53.2159 153.5423 0000850 105.2498 254.8588 15.08825693 67003,6917.924,95.438,540.377,539.201,0.0
49747.0,STARLINK-3247,PAYLOAD,2023-02-10 12:49:17,15.08864103,0.0001055,53.2153,151.1635,81.4221,278.6891,0.0033896,0.00054107,0.0,0 STARLINK-3247,1 49747U 21115Z   23041.53423325  .00054107  00000-0  33896-2 0  9996,2 49747  53.2153 151.1635 0001055  81.4221 278.6891 15.08864103 67081,6917.807,95.436,540.402,538.942,0.0
49747.0,STARLINK-3247,PAYLOAD,2023-02-10 14:24:40,15.08871633,0.0001045,53.2152,150.866,81.8636,278.2475,0.0034461,0.00055033,0.0,0 STARLINK-3247,1 49747U 21115Z   23041.60047189  .00055033  00000-0  34461-2 0  9992,2 49747  53.2152 150.8660 0001045  81.8636 278.2475 15.08871633 65984,6917.784,95.436,540.372,538.926,0.0
49747.0,STARLINK-3247,PAYLOAD,2023-02-10 23:56:59,15.08853886,0.0001205,53.2149,149.0822,93.5012,266.6118,0.0033757,0.00053868,0.0,0 STARLINK-3247,1 49747U 21115Z   23041.99791264  .00053868  00000-0  33757-2 0  9995,2 49747  53.2149 149.0822 0001205  93.5012 266.6118 15.08853886 67152,6917.838,95.437,540.537,538.869,0.0
49747.0,STARLINK-3247,PAYLOAD,2023-02-11 19:01:37,15.08868774,0.0001933,53.2138,145.5136,90.1711,269.9503,0.0020824,0.00033036,0.0,0 STARLINK-3247,1 49747U 21115Z   23042.79279308  .00033036  00000-0  20824-2 0  9990,2 49747  53.2138 145.5136 0001933  90.1711 269.9503 15.08868774 67275,6917.792,95.436,540.995,538.32,0.0
49747.0,STARLINK-3247,PAYLOAD,2023-02-12 07:44:42,15.08832748,0.0001406,53.2139,143.1346,119.8111,240.3021,0.0028045,0.0004462,0.0,0 STARLINK-3247,1 49747U 21115Z   23043.32271818  .00044620  00000-0  28045-2 0  9992,2 49747  53.2139 143.1346 0001406 119.8111 240.3021 15.08832748 67350,6917.903,95.438,540.74,538.795,0.0
49747.0,STARLINK-3247,PAYLOAD,2023-02-13 06:00:06,15.08836228,0.0001278,53.2148,138.9708,117.2522,242.86,0.0005111,7.855e-05,0.0,0 STARLINK-3247,1 49747U 21115Z   23044.25007334  .00007855  00000-0  51110-3 0  9994,2 49747  53.2148 138.9708 0001278 117.2522 242.8600 15.08836228 67491,6917.892,95.438,540.641,538.873,0.0
49747.0,STARLINK-3247,PAYLOAD,2023-02-13 12:21:39,15.08846973,0.0001284,53.2143,137.7818,94.6042,265.5097,0.0032552,0.0005191,0.0,0 STARLINK-3247,1 49747U 21115Z   23044.51503737  .00051910  00000-0  32552-2 0  9990,2 49747  53.2143 137.7818 0001284  94.6042 265.5097 15.08846973 66429,6917.859,95.437,540.612,538.836,0.0
